start=new Date('2021-09-04T00:00:00.000Z').valueOf();
sats=[{"MEAN_ELEMENT_THEORY":"SGP4","MEAN_MOTION_DDOT":"0.0000000000000","PERIAPSIS":"481.215","CENTER_NAME":"EARTH","EPHEMERIS_TYPE":"0","PERIOD":"94.248","CLASSIFICATION_TYPE":"U","FILE":"3108332","TLE_LINE2":"2 47839  53.0529  69.7311 0001348  85.6146 274.5007 15.27884278 28490","TLE_LINE1":"1 47839U 21018BE  21246.67512939  .00002863  00000-0  11646-3 0  9990","SITE":"AFETR","TIME_SYSTEM":"UTC","SEMIMAJOR_AXIS":"6860.275","RA_OF_ASC_NODE":"69.7311","RCS_SIZE":"LARGE","MEAN_MOTION":"15.27884278","INCLINATION":"53.0529","APOAPSIS":"483.065","GP_ID":"184050511","DECAY_DATE":null,"REV_AT_EPOCH":"2849","LAUNCH_DATE":"2021-03-11","MEAN_MOTION_DOT":"0.00002863","EPOCH":"2021-09-03T16:12:11.179296","OBJECT_TYPE":"PAYLOAD","COUNTRY_CODE":"US","ARG_OF_PERICENTER":"85.6146","BSTAR":"0.00011646000000","OBJECT_NAME":"STARLINK-2431","ECCENTRICITY":"0.00013480","NORAD_CAT_ID":"47839","REF_FRAME":"TEME","MEAN_ANOMALY":"274.5007","ELEMENT_SET_NO":"999","OBJECT_ID":"2021-018BE"},{"ARG_OF_PERICENTER":"105.0381","BSTAR":"0.00004924300000","OBJECT_NAME":"STARLINK-2432","MEAN_ANOMALY":"255.0833","REF_FRAME":"TEME","ECCENTRICITY":"0.00020280","NORAD_CAT_ID":"47840","ELEMENT_SET_NO":"999","OBJECT_ID":"2021-018BF","APOAPSIS":"548.658","DECAY_DATE":null,"GP_ID":"184050263","EPOCH":"2021-09-03T13:16:50.051712","MEAN_MOTION_DOT":"0.00000452","REV_AT_EPOCH":"2846","LAUNCH_DATE":"2021-03-11","COUNTRY_CODE":"US","OBJECT_TYPE":"PAYLOAD","TIME_SYSTEM":"UTC","SITE":"AFETR","RA_OF_ASC_NODE":"70.3850","SEMIMAJOR_AXIS":"6925.389","RCS_SIZE":"LARGE","INCLINATION":"53.0533","MEAN_MOTION":"15.06386830","MEAN_ELEMENT_THEORY":"SGP4","PERIAPSIS":"545.849","CENTER_NAME":"EARTH","MEAN_MOTION_DDOT":"0.0000000000000","TLE_LINE2":"2 47840  53.0533  70.3850 0002028 105.0381 255.0833 15.06386830 28463","FILE":"3108332","CLASSIFICATION_TYPE":"U","PERIOD":"95.593","EPHEMERIS_TYPE":"0","TLE_LINE1":"1 47840U 21018BF  21246.55335708  .00000452  00000-0  49243-4 0  9993"},{"MEAN_MOTION":"15.06395325","INCLINATION":"53.0553","RCS_SIZE":"LARGE","RA_OF_ASC_NODE":"70.0958","SEMIMAJOR_AXIS":"6925.363","SITE":"AFETR","TIME_SYSTEM":"UTC","TLE_LINE1":"1 47841U 21018BG  21246.61600316  .00001043  00000-0  88917-4 0  9999","CLASSIFICATION_TYPE":"U","PERIOD":"95.592","EPHEMERIS_TYPE":"0","TLE_LINE2":"2 47841  53.0553  70.0958 0002039 100.3551 259.7668 15.06395325 28478","FILE":"3108332","CENTER_NAME":"EARTH","PERIAPSIS":"545.816","MEAN_MOTION_DDOT":"0.0000000000000","MEAN_ELEMENT_THEORY":"SGP4","OBJECT_ID":"2021-018BG","ELEMENT_SET_NO":"999","REF_FRAME":"TEME","NORAD_CAT_ID":"47841","ECCENTRICITY":"0.00020390","MEAN_ANOMALY":"259.7668","BSTAR":"0.00008891700000","OBJECT_NAME":"STARLINK-2433","ARG_OF_PERICENTER":"100.3551","COUNTRY_CODE":"US","OBJECT_TYPE":"PAYLOAD","LAUNCH_DATE":"2021-03-11","REV_AT_EPOCH":"2847","EPOCH":"2021-09-03T14:47:02.673024","MEAN_MOTION_DOT":"0.00001043","DECAY_DATE":null,"GP_ID":"184049013","APOAPSIS":"548.640"},{"OBJECT_TYPE":"PAYLOAD","COUNTRY_CODE":"US","MEAN_MOTION_DOT":"-0.00000846","EPOCH":"2021-09-03T08:04:57.479232","LAUNCH_DATE":"2021-03-11","REV_AT_EPOCH":"2806","GP_ID":"184016566","DECAY_DATE":null,"APOAPSIS":"548.782","OBJECT_ID":"2021-018BH","ELEMENT_SET_NO":"999","MEAN_ANOMALY":"281.6338","ECCENTRICITY":"0.00022260","NORAD_CAT_ID":"47842","REF_FRAME":"TEME","BSTAR":"-0.00003789400000","OBJECT_NAME":"STARLINK-2434","ARG_OF_PERICENTER":"78.4901","TLE_LINE1":"1 47842U 21018BH  21246.33677638 -.00000846  00000-0 -37894-4 0  9990","FILE":"3107903","TLE_LINE2":"2 47842  53.0558 101.3564 0002226  78.4901 281.6338 15.06391091 28066","EPHEMERIS_TYPE":"0","PERIOD":"95.593","CLASSIFICATION_TYPE":"U","MEAN_MOTION_DDOT":"0.0000000000000","CENTER_NAME":"EARTH","PERIAPSIS":"545.699","MEAN_ELEMENT_THEORY":"SGP4","INCLINATION":"53.0558","MEAN_MOTION":"15.06391091","RCS_SIZE":"LARGE","SEMIMAJOR_AXIS":"6925.376","RA_OF_ASC_NODE":"101.3564","TIME_SYSTEM":"UTC","SITE":"AFETR"},{"TLE_LINE1":"1 47843U 21018BJ  21246.57499694  .00001025  00000-0  87680-4 0  9997","FILE":"3108332","TLE_LINE2":"2 47843  53.0557  95.2884 0001844  72.7966 287.3225 15.06403728 28132","EPHEMERIS_TYPE":"0","PERIOD":"95.592","CLASSIFICATION_TYPE":"U","MEAN_MOTION_DDOT":"0.0000000000000","PERIAPSIS":"545.925","CENTER_NAME":"EARTH","MEAN_ELEMENT_THEORY":"SGP4","INCLINATION":"53.0557","MEAN_MOTION":"15.06403728","RCS_SIZE":"LARGE","SEMIMAJOR_AXIS":"6925.337","RA_OF_ASC_NODE":"95.2884","TIME_SYSTEM":"UTC","SITE":"AFETR","OBJECT_TYPE":"PAYLOAD","COUNTRY_CODE":"US","MEAN_MOTION_DOT":"0.00001025","EPOCH":"2021-09-03T13:47:59.735616","LAUNCH_DATE":"2021-03-11","REV_AT_EPOCH":"2813","GP_ID":"184050011","DECAY_DATE":null,"APOAPSIS":"548.479","ELEMENT_SET_NO":"999","OBJECT_ID":"2021-018BJ","MEAN_ANOMALY":"287.3225","NORAD_CAT_ID":"47843","ECCENTRICITY":"0.00018440","REF_FRAME":"TEME","BSTAR":"0.00008768000000","OBJECT_NAME":"STARLINK-2435","ARG_OF_PERICENTER":"72.7966"},{"MEAN_ELEMENT_THEORY":"SGP4","MEAN_MOTION_DDOT":"0.0000000000000","PERIAPSIS":"545.738","CENTER_NAME":"EARTH","CLASSIFICATION_TYPE":"U","PERIOD":"95.593","EPHEMERIS_TYPE":"0","FILE":"3108332","TLE_LINE2":"2 47844  53.0553  90.2908 0002156  69.5735 290.5486 15.06394151 28185","TLE_LINE1":"1 47844U 21018BK  21246.57361248  .00000662  00000-0  63342-4 0  9996","SITE":"AFETR","TIME_SYSTEM":"UTC","SEMIMAJOR_AXIS":"6925.366","RA_OF_ASC_NODE":"90.2908","RCS_SIZE":"LARGE","MEAN_MOTION":"15.06394151","INCLINATION":"53.0553","APOAPSIS":"548.725","GP_ID":"184050764","DECAY_DATE":null,"REV_AT_EPOCH":"2818","LAUNCH_DATE":"2021-03-11","MEAN_MOTION_DOT":"0.00000662","EPOCH":"2021-09-03T13:46:00.118272","OBJECT_TYPE":"PAYLOAD","COUNTRY_CODE":"US","ARG_OF_PERICENTER":"69.5735","BSTAR":"0.00006334200000","OBJECT_NAME":"STARLINK-2446","ECCENTRICITY":"0.00021560","NORAD_CAT_ID":"47844","REF_FRAME":"TEME","MEAN_ANOMALY":"290.5486","ELEMENT_SET_NO":"999","OBJECT_ID":"2021-018BK"},{"MEAN_MOTION_DOT":"0.00000640","EPOCH":"2021-09-03T17:23:37.466016","LAUNCH_DATE":"2021-03-11","REV_AT_EPOCH":"2821","OBJECT_TYPE":"PAYLOAD","COUNTRY_CODE":"US","APOAPSIS":"548.216","GP_ID":"184049514","DECAY_DATE":null,"MEAN_ANOMALY":"248.8632","ECCENTRICITY":"0.00014190","NORAD_CAT_ID":"47845","REF_FRAME":"TEME","ELEMENT_SET_NO":"999","OBJECT_ID":"2021-018BL","ARG_OF_PERICENTER":"111.2509","BSTAR":"0.00006188000000","OBJECT_NAME":"STARLINK-2453","FILE":"3108332","TLE_LINE2":"2 47845  53.0567  89.6259 0001419 111.2509 248.8632 15.06393574 28218","PERIOD":"95.593","CLASSIFICATION_TYPE":"U","EPHEMERIS_TYPE":"0","TLE_LINE1":"1 47845U 21018BL  21246.72473919  .00000640  00000-0  61880-4 0  9994","MEAN_ELEMENT_THEORY":"SGP4","MEAN_MOTION_DDOT":"0.0000000000000","CENTER_NAME":"EARTH","PERIAPSIS":"546.251","RCS_SIZE":"LARGE","INCLINATION":"53.0567","MEAN_MOTION":"15.06393574","TIME_SYSTEM":"UTC","SITE":"AFETR","SEMIMAJOR_AXIS":"6925.368","RA_OF_ASC_NODE":"89.6259"},{"PERIAPSIS":"545.843","CENTER_NAME":"EARTH","MEAN_MOTION_DDOT":"0.0000000000000","MEAN_ELEMENT_THEORY":"SGP4","TLE_LINE1":"1 47846U 21018BM  21246.72103864 -.00001204  00000-0 -61947-4 0  9997","TLE_LINE2":"2 47846  53.0574  89.6420 0001986  69.8127 290.3075 15.06398479 28267","FILE":"3108332","EPHEMERIS_TYPE":"0","PERIOD":"95.592","CLASSIFICATION_TYPE":"U","RA_OF_ASC_NODE":"89.6420","SEMIMAJOR_AXIS":"6925.353","TIME_SYSTEM":"UTC","SITE":"AFETR","INCLINATION":"53.0574","MEAN_MOTION":"15.06398479","RCS_SIZE":"LARGE","DECAY_DATE":null,"GP_ID":"184049764","APOAPSIS":"548.594","COUNTRY_CODE":"US","OBJECT_TYPE":"PAYLOAD","EPOCH":"2021-09-03T17:18:17.738496","MEAN_MOTION_DOT":"-0.00001204","REV_AT_EPOCH":"2826","LAUNCH_DATE":"2021-03-11","BSTAR":"-0.00006194700000","OBJECT_NAME":"STARLINK-2456","ARG_OF_PERICENTER":"69.8127","ELEMENT_SET_NO":"999","OBJECT_ID":"2021-018BM","MEAN_ANOMALY":"290.3075","REF_FRAME":"TEME","ECCENTRICITY":"0.00019860","NORAD_CAT_ID":"47846"},{"INCLINATION":"53.0568","MEAN_MOTION":"15.06397154","RCS_SIZE":"LARGE","SEMIMAJOR_AXIS":"6925.357","RA_OF_ASC_NODE":"121.0939","TIME_SYSTEM":"UTC","SITE":"AFETR","TLE_LINE1":"1 47860U 21021A   21246.39392179  .00001538  00000-0  12215-3 0  9990","FILE":"3108332","TLE_LINE2":"2 47860  53.0568 121.0939 0001748  92.0212 268.0977 15.06397154 27510","CLASSIFICATION_TYPE":"U","PERIOD":"95.592","EPHEMERIS_TYPE":"0","MEAN_MOTION_DDOT":"0.0000000000000","PERIAPSIS":"546.012","CENTER_NAME":"EARTH","MEAN_ELEMENT_THEORY":"SGP4","ELEMENT_SET_NO":"999","OBJECT_ID":"2021-021A","MEAN_ANOMALY":"268.0977","NORAD_CAT_ID":"47860","ECCENTRICITY":"0.00017480","REF_FRAME":"TEME","BSTAR":"0.00012215000000","OBJECT_NAME":"STARLINK-2258","ARG_OF_PERICENTER":"92.0212","OBJECT_TYPE":"PAYLOAD","COUNTRY_CODE":"US","MEAN_MOTION_DOT":"0.00001538","EPOCH":"2021-09-03T09:27:14.842656","LAUNCH_DATE":"2021-03-14","REV_AT_EPOCH":"2751","GP_ID":"184050265","DECAY_DATE":null,"APOAPSIS":"548.433"},{"ARG_OF_PERICENTER":"98.7325","OBJECT_NAME":"STARLINK-2280","BSTAR":"0.00010125000000","MEAN_ANOMALY":"261.3917","REF_FRAME":"TEME","NORAD_CAT_ID":"47861","ECCENTRICITY":"0.00022290","OBJECT_ID":"2021-021B","ELEMENT_SET_NO":"999","APOAPSIS":"548.748","DECAY_DATE":null,"GP_ID":"184049015","EPOCH":"2021-09-03T17:50:47.854752","MEAN_MOTION_DOT":"0.00001227","LAUNCH_DATE":"2021-03-14","REV_AT_EPOCH":"2788","COUNTRY_CODE":"US","OBJECT_TYPE":"PAYLOAD","TIME_SYSTEM":"UTC","SITE":"AFETR","RA_OF_ASC_NODE":"104.5262","SEMIMAJOR_AXIS":"6925.340","RCS_SIZE":"LARGE","INCLINATION":"53.0567","MEAN_MOTION":"15.06402912","MEAN_ELEMENT_THEORY":"SGP4","CENTER_NAME":"EARTH","PERIAPSIS":"545.661","MEAN_MOTION_DDOT":"0.0000000000000","TLE_LINE2":"2 47861  53.0567 104.5262 0002229  98.7325 261.3917 15.06402912 27887","FILE":"3108332","PERIOD":"95.592","CLASSIFICATION_TYPE":"U","EPHEMERIS_TYPE":"0","TLE_LINE1":"1 47861U 21021B   21246.74360943  .00001227  00000-0  10125-3 0  9997"}];
